[{"OBJECT_NAME":"STARLINK-5498","OBJECT_ID":"2023-021F","EPOCH":"2026-03-09T17:21:36.855936","MEAN_MOTION":14.98324975,"ECCENTRICITY":0.00034116,"INCLINATION":69.9995,"RA_OF_ASC_NODE":204.3534,"ARG_OF_PERICENTER":274.9157,"MEAN_ANOMALY":85.1613,"EPHEMERIS_TYPE":0,"CLASSIFICATION_TYPE":"U","NORAD_CAT_ID":55633,"ELEMENT_SET_NO":999,"REV_AT_EPOCH":16830,"BSTAR":-4.7725284e-5,"MEAN_MOTION_DOT":-6.62e-6,"MEAN_MOTION_DDOT":0},{"OBJECT_NAME":"UM5-RIBAT","OBJECT_ID":"2024-149CQ","EPOCH":"2026-03-09T19:05:41.327808","MEAN_MOTION":15.00468196,"ECCENTRICITY":0.00032721,"INCLINATION":97.6776,"RA_OF_ASC_NODE":147.9138,"ARG_OF_PERICENTER":87.0399,"MEAN_ANOMALY":273.1199,"EPHEMERIS_TYPE":0,"CLASSIFICATION_TYPE":"U","NORAD_CAT_ID":60554,"ELEMENT_SET_NO":999,"REV_AT_EPOCH":8528,"BSTAR":0.00037992942,"MEAN_MOTION_DOT":4.725e-5,"MEAN_MOTION_DDOT":0}]
