STARLINK-5498           
1 55633U 23021F   26068.72334323 -.00000662  00000+0 -47725-4 0  9993
2 55633  69.9995 204.3534 0003412 274.9157  85.1613 14.98324975168301
UM5-RIBAT               
1 60554U 24149CQ  26068.79561721  .00004725  00000+0  37993-3 0  9991
2 60554  97.6776 147.9138 0003272  87.0399 273.1199 15.00468196 85282
